{
  "type": "FeatureCollection",
  "features": [
    {
      "type": "Feature",
      "properties": {
        "norad_id": 31934,
        "name": "FENGYUN 1C DEB",
        "group": "fengyun-1c-debris",
        "lat": -36.274092450830125,
        "lon": -148.152846145365,
        "alt_km": 523.6616717141924,
        "timestamp": "2025-12-14T18:52:55.788433+00:00",
        "meta_object_name": "FENGYUN 1C DEB",
        "meta_object_id": "1999-025CMK",
        "meta_epoch": "2025-12-04T09:16:56.352576",
        "meta_mean_motion": 15.05606214,
        "meta_eccentricity": 0.0038121,
        "meta_inclination": 98.8816,
        "meta_ra_of_asc_node": 26.4564,
        "meta_arg_of_pericenter": 260.5868,
        "meta_mean_anomaly": 99.1044,
        "meta_ephemeris_type": 0,
        "meta_classification_type": "U",
        "meta_norad_cat_id": 31934,
        "meta_element_set_no": 999,
        "meta_rev_at_epoch": 60717,
        "meta_bstar": 0.0071095,
        "meta_mean_motion_dot": 0.00105581,
        "meta_mean_motion_ddot": 0,
        "tle_line1": "1 31934U 99025CMK 25338.38676334  .00105581  00000+0  71095-2 0  9999",
        "tle_line2": "2 31934  98.8816  26.4564 0038121 260.5868  99.1044 15.05606214607177"
      },
      "geometry": {
        "type": "Point",
        "coordinates": [
          -148.152846145365,
          -36.274092450830125
        ]
      }
    },
    {
      "type": "Feature",
      "properties": {
        "norad_id": 31937,
        "name": "FENGYUN 1C DEB",
        "group": "fengyun-1c-debris",
        "lat": 38.283834468661134,
        "lon": 71.28371961079766,
        "alt_km": 665.4003561762875,
        "timestamp": "2025-12-14T18:52:55.788443+00:00",
        "meta_object_name": "FENGYUN 1C DEB",
        "meta_object_id": "1999-025CMN",
        "meta_epoch": "2025-12-06T23:52:27.149088",
        "meta_mean_motion": 14.78022374,
        "meta_eccentricity": 0.0162921,
        "meta_inclination": 99.2561,
        "meta_ra_of_asc_node": 69.7316,
        "meta_arg_of_pericenter": 315.3928,
        "meta_mean_anomaly": 43.4262,
        "meta_ephemeris_type": 0,
        "meta_classification_type": "U",
        "meta_norad_cat_id": 31937,
        "meta_element_set_no": 999,
        "meta_rev_at_epoch": 65984,
        "meta_bstar": 0.0011794166,
        "meta_mean_motion_dot": 0.00010567,
        "meta_mean_motion_ddot": 0,
        "tle_line1": "1 31937U 99025CMN 25340.99475867  .00010567  00000+0  11794-2 0  9999",
        "tle_line2": "2 31937  99.2561  69.7316 0162921 315.3928  43.4262 14.78022374659842"
      },
      "geometry": {
        "type": "Point",
        "coordinates": [
          71.28371961079766,
          38.283834468661134
        ]
      }
    },
    {
      "type": "Feature",
      "properties": {
        "norad_id": 31938,
        "name": "FENGYUN 1C DEB",
        "group": "fengyun-1c-debris",
        "lat": 59.403818923931816,
        "lon": -144.0760716125429,
        "alt_km": 519.7590097426464,
        "timestamp": "2025-12-14T18:52:55.788453+00:00",
        "meta_object_name": "FENGYUN 1C DEB",
        "meta_object_id": "1999-025CMP",
        "meta_epoch": "2025-12-13T19:53:06.832320",
        "meta_mean_motion": 14.95628695,
        "meta_eccentricity": 0.01527822,
        "meta_inclination": 98.9296,
        "meta_ra_of_asc_node": 19.4118,
        "meta_arg_of_pericenter": 62.7282,
        "meta_mean_anomaly": 298.9403,
        "meta_ephemeris_type": 0,
        "meta_classification_type": "U",
        "meta_norad_cat_id": 31938,
        "meta_element_set_no": 999,
        "meta_rev_at_epoch": 99152,
        "meta_bstar": 0.00051745231,
        "meta_mean_motion_dot": 7.194e-05,
        "meta_mean_motion_ddot": 0,
        "tle_line1": "1 31938U 99025CMP 25347.82855130  .00007194  00000+0  51745-3 0  9997",
        "tle_line2": "2 31938  98.9296  19.4118 0152782  62.7282 298.9403 14.95628695991521"
      },
      "geometry": {
        "type": "Point",
        "coordinates": [
          -144.0760716125429,
          59.403818923931816
        ]
      }
    },
    {
      "type": "Feature",
      "properties": {
        "norad_id": 31944,
        "name": "FENGYUN 1C DEB",
        "group": "fengyun-1c-debris",
        "lat": 80.78546428734924,
        "lon": 44.38308952835584,
        "alt_km": 847.4286141938119,
        "timestamp": "2025-12-14T18:52:55.788464+00:00",
        "meta_object_name": "FENGYUN 1C DEB",
        "meta_object_id": "1999-025CMV",
        "meta_epoch": "2025-12-12T04:22:40.814976",
        "meta_mean_motion": 14.11787529,
        "meta_eccentricity": 0.0151811,
        "meta_inclination": 99.2035,
        "meta_ra_of_asc_node": 133.6743,
        "meta_arg_of_pericenter": 5.8705,
        "meta_mean_anomaly": 173.5719,
        "meta_ephemeris_type": 0,
        "meta_classification_type": "U",
        "meta_norad_cat_id": 31944,
        "meta_element_set_no": 999,
        "meta_rev_at_epoch": 62902,
        "meta_bstar": 0.0007470391,
        "meta_mean_motion_dot": 1.471e-05,
        "meta_mean_motion_ddot": 0,
        "tle_line1": "1 31944U 99025CMV 25346.18241684  .00001471  00000+0  74704-3 0  9997",
        "tle_line2": "2 31944  99.2035 133.6743 0151811   5.8705 173.5719 14.11787529629027"
      },
      "geometry": {
        "type": "Point",
        "coordinates": [
          44.38308952835584,
          80.78546428734924
        ]
      }
    },
    {
      "type": "Feature",
      "properties": {
        "norad_id": 31945,
        "name": "FENGYUN 1C DEB",
        "group": "fengyun-1c-debris",
        "lat": 37.725287462955116,
        "lon": -107.833449371074,
        "alt_km": 853.1308357528096,
        "timestamp": "2025-12-14T18:52:55.788474+00:00",
        "meta_object_name": "FENGYUN 1C DEB",
        "meta_object_id": "1999-025CMW",
        "meta_epoch": "2025-12-13T11:47:25.444608",
        "meta_mean_motion": 14.20810827,
        "meta_eccentricity": 0.00610185,
        "meta_inclination": 98.9627,
        "meta_ra_of_asc_node": 63.8406,
        "meta_arg_of_pericenter": 284.9979,
        "meta_mean_anomaly": 74.4449,
        "meta_ephemeris_type": 0,
        "meta_classification_type": "U",
        "meta_norad_cat_id": 31945,
        "meta_element_set_no": 999,
        "meta_rev_at_epoch": 95206,
        "meta_bstar": 0.0023325196,
        "meta_mean_motion_dot": 5.09e-05,
        "meta_mean_motion_ddot": 0,
        "tle_line1": "1 31945U 99025CMW 25347.49126672  .00005090  00000+0  23325-2 0  9995",
        "tle_line2": "2 31945  98.9627  63.8406 0061018 284.9979  74.4449 14.20810827952063"
      },
      "geometry": {
        "type": "Point",
        "coordinates": [
          -107.833449371074,
          37.725287462955116
        ]
      }
    },
    {
      "type": "Feature",
      "properties": {
        "norad_id": 31946,
        "name": "FENGYUN 1C DEB",
        "group": "fengyun-1c-debris",
        "lat": -16.13744473318549,
        "lon": 51.60901627691001,
        "alt_km": 812.2993566340965,
        "timestamp": "2025-12-14T18:52:55.788484+00:00",
        "meta_object_name": "FENGYUN 1C DEB",
        "meta_object_id": "1999-025CMX",
        "meta_epoch": "2025-12-12T21:11:04.797024",
        "meta_mean_motion": 14.16435479,
        "meta_eccentricity": 0.00822373,
        "meta_inclination": 98.8979,
        "meta_ra_of_asc_node": 47.1081,
        "meta_arg_of_pericenter": 49.4272,
        "meta_mean_anomaly": 311.4022,
        "meta_ephemeris_type": 0,
        "meta_classification_type": "U",
        "meta_norad_cat_id": 31946,
        "meta_element_set_no": 999,
        "meta_rev_at_epoch": 64010,
        "meta_bstar": 0.0019247318,
        "meta_mean_motion_dot": 3.913e-05,
        "meta_mean_motion_ddot": 0,
        "tle_line1": "1 31946U 99025CMX 25346.88269441  .00003913  00000+0  19247-2 0  9990",
        "tle_line2": "2 31946  98.8979  47.1081 0082237  49.4272 311.4022 14.16435479640104"
      },
      "geometry": {
        "type": "Point",
        "coordinates": [
          51.60901627691001,
          -16.13744473318549
        ]
      }
    },
    {
      "type": "Feature",
      "properties": {
        "norad_id": 31948,
        "name": "FENGYUN 1C DEB",
        "group": "fengyun-1c-debris",
        "lat": 79.37855776786296,
        "lon": -68.67938399204755,
        "alt_km": 786.2055699796156,
        "timestamp": "2025-12-14T18:52:55.788494+00:00",
        "meta_object_name": "FENGYUN 1C DEB",
        "meta_object_id": "1999-025CMZ",
        "meta_epoch": "2025-12-08T09:44:13.179840",
        "meta_mean_motion": 14.28248279,
        "meta_eccentricity": 0.00237817,
        "meta_inclination": 99.3918,
        "meta_ra_of_asc_node": 42.5089,
        "meta_arg_of_pericenter": 35.7447,
        "meta_mean_anomaly": 26.9919,
        "meta_ephemeris_type": 0,
        "meta_classification_type": "U",
        "meta_norad_cat_id": 31948,
        "meta_element_set_no": 999,
        "meta_rev_at_epoch": 94966,
        "meta_bstar": 0.0021945448,
        "meta_mean_motion_dot": 5.441e-05,
        "meta_mean_motion_ddot": 0,
        "tle_line1": "1 31948U 99025CMZ 25342.40570810  .00005441  00000+0  21945-2 0  9997",
        "tle_line2": "2 31948  99.3918  42.5089 0023781  35.7447  26.9919 14.28248279949662"
      },
      "geometry": {
        "type": "Point",
        "coordinates": [
          -68.67938399204755,
          79.37855776786296
        ]
      }
    }
  ]
}